[{"OBJECT_NAME":"SITRO-AIS 37","OBJECT_ID":"2024-199AX","EPOCH":"2026-03-09T21:39:06.332832","MEAN_MOTION":15.50371967,"ECCENTRICITY":0.00074688,"INCLINATION":97.3098,"RA_OF_ASC_NODE":303.0596,"ARG_OF_PERICENTER":300.2136,"MEAN_ANOMALY":59.8376,"EPHEMERIS_TYPE":0,"CLASSIFICATION_TYPE":"U","NORAD_CAT_ID":61780,"ELEMENT_SET_NO":999,"REV_AT_EPOCH":11901,"BSTAR":0.0007407449,"MEAN_MOTION_DOT":0.00042171,"MEAN_MOTION_DDOT":0},{"OBJECT_NAME":"STARLINK-36717","OBJECT_ID":"2026-026Y","EPOCH":"2026-03-09T22:00:01.999584","MEAN_MOTION":15.49158128,"ECCENTRICITY":0.00015847,"INCLINATION":97.2845,"RA_OF_ASC_NODE":123.5271,"ARG_OF_PERICENTER":85.907,"MEAN_ANOMALY":181.2155,"EPHEMERIS_TYPE":0,"CLASSIFICATION_TYPE":"U","NORAD_CAT_ID":67743,"ELEMENT_SET_NO":999,"REV_AT_EPOCH":548,"BSTAR":0.0013003436,"MEAN_MOTION_DOT":0.00071198,"MEAN_MOTION_DDOT":0}]
